OBJECT_NAME,OBJECT_ID,EPOCH,MEAN_MOTION,ECCENTRICITY,INCLINATION,RA_OF_ASC_NODE,ARG_OF_PERICENTER,MEAN_ANOMALY,EPHEMERIS_TYPE,CLASSIFICATION_TYPE,NORAD_CAT_ID,ELEMENT_SET_NO,REV_AT_EPOCH,BSTAR,MEAN_MOTION_DOT,MEAN_MOTION_DDOT
IRIDIUM 154,2018-061F,2026-07-22T12:49:38.481888,14.34217894,.00022906,86.3938,42.0203,88.6591,271.4868,0,U,43574,999,41847,.1816574E-4,.71E-6,0
IRIDIUM 163,2018-061G,2026-07-22T12:22:14.428992,14.34218370,.00021157,86.3936,41.9422,87.8746,272.2692,0,U,43575,999,41844,.32277758E-4,.11E-5,0
IRIDIUM 156,2018-061H,2026-07-22T13:26:10.397184,14.34217941,.00022039,86.3936,41.9312,93.4641,266.6806,0,U,43576,999,41844,.60732999E-4,.19E-5,0
IRIDIUM 164,2018-061J,2026-07-22T12:58:46.465248,14.34217802,.00022013,86.3933,41.9800,88.1150,272.0298,0,U,43577,999,41848,.2009492E-5,.25E-6,0
IRIDIUM 159,2018-061K,2026-07-22T13:53:34.463040,14.34217421,.00019753,86.3932,41.9002,86.7557,273.3865,0,U,43578,999,41845,-.5114101E-5,.5E-7,0
IRIDIUM 180,2019-002A,2026-07-22T08:51:26.889408,14.34218670,.00020501,86.3996,338.8919,91.3770,268.7660,0,U,43922,999,39403,.59643026E-4,.187E-5,0
IRIDIUM 176,2019-002B,2026-07-22T08:47:34.857888,14.72255894,.00023432,86.6120,338.8313,91.8353,268.3132,0,U,43923,999,40442,.93858947E-4,.616E-5,0
IRIDIUM 168,2019-002C,2026-07-22T08:42:18.949248,14.34218792,.00021965,86.4002,338.9725,91.7562,268.3885,0,U,43924,999,39401,.60542549E-4,.189E-5,0
IRIDIUM 173,2019-002D,2026-07-22T08:24:02.917728,14.34217517,.00020341,86.3995,338.8656,93.1716,266.9713,0,U,43925,999,39399,-.18539428E-4,-.32E-6,0
IRIDIUM 169,2019-002E,2026-07-22T09:04:08.452704,14.38601349,.00021012,86.4240,10.4771,104.6108,255.5323,0,U,43926,999,39528,.47760008E-4,.166E-5,0
IRIDIUM 172,2019-002F,2026-07-22T08:14:54.926592,14.34217946,.0002184,86.3998,338.8761,92.1203,268.0243,0,U,43927,999,39400,.3924276E-5,.31E-6,0
IRIDIUM 175,2019-002G,2026-07-22T06:42:40.896864,14.43629829,.00055583,86.4503,275.8528,101.6652,258.5173,0,U,43928,999,40404,.59311188E-4,.221E-5,0
IRIDIUM 171,2019-002H,2026-07-22T07:47:30.992928,14.34218413,.0002269,86.4009,339.1940,95.3139,264.8316,0,U,43929,999,39399,.66482307E-4,.206E-5,0
IRIDIUM 170,2019-002J,2026-07-22T08:56:27.664224,14.72256515,.00021924,86.6119,338.8308,89.5830,270.5639,0,U,43930,999,40443,.93740237E-4,.616E-5,0
IRIDIUM 167,2019-002K,2026-07-22T07:38:22.873056,14.34393285,.00024735,86.3990,338.9096,121.4205,238.7233,0,U,43931,999,39399,.46780308E-4,.151E-5,0
IRIDIUM 181,2023-068S,2026-07-22T12:48:38.371680,14.43309837,.00023417,86.4475,42.0077,83.7006,276.4462,0,U,56726,999,16753,.62285097E-4,.23E-5,0
IRIDIUM 177,2023-068T,2026-07-22T08:15:01.246752,14.80033001,.00022644,86.1987,312.1019,97.6919,262.4559,0,U,56727,999,17156,.10060946E-3,.787E-5,0
IRIDIUM 174,2023-068U,2026-07-22T07:00:38.298816,14.72251876,.00018984,86.6121,339.0143,93.2561,266.8873,0,U,56728,999,17118,.84278092E-4,.556E-5,0
IRIDIUM 178,2023-068V,2026-07-22T09:36:35.664192,14.80021379,.00022755,86.6543,10.6427,92.1624,267.9858,0,U,56729,999,17157,.90403078E-4,.71E-5,0
IRIDIUM 179,2023-068W,2026-07-22T11:06:14.920416,14.80025235,.00024102,86.6772,19.6999,94.0950,266.0547,0,U,56730,999,17158,.28767385E-4,.244E-5,0
