IRIDIUM 154             
1 43574U 18061F   26203.53447317  .00000071  00000+0  18166-4 0  9999
2 43574  86.3938  42.0203 0002290  88.6591 271.4868 14.34217894418476
IRIDIUM 163             
1 43575U 18061G   26203.51544478  .00000110  00000+0  32278-4 0  9998
2 43575  86.3936  41.9422 0002115  87.8746 272.2692 14.34218370418446
IRIDIUM 156             
1 43576U 18061H   26203.55984256  .00000190  00000+0  60733-4 0  9990
2 43576  86.3936  41.9312 0002203  93.4641 266.6806 14.34217941418447
IRIDIUM 164             
1 43577U 18061J   26203.54081557  .00000025  00000+0  20095-5 0  9997
2 43577  86.3933  41.9800 0002201  88.1150 272.0298 14.34217802418487
IRIDIUM 159             
1 43578U 18061K   26203.57887110  .00000005  00000+0 -51141-5 0  9995
2 43578  86.3932  41.9002 0001975  86.7557 273.3865 14.34217421418451
IRIDIUM 180             
1 43922U 19002A   26203.36906122  .00000187  00000+0  59643-4 0  9990
2 43922  86.3996 338.8919 0002050  91.3770 268.7660 14.34218670394038
IRIDIUM 176             
1 43923U 19002B   26203.36637567  .00000616  00000+0  93859-4 0  9999
2 43923  86.6120 338.8313 0002343  91.8353 268.3132 14.72255894404422
IRIDIUM 168             
1 43924U 19002C   26203.36271932  .00000189  00000+0  60543-4 0  9999
2 43924  86.4002 338.9725 0002196  91.7562 268.3885 14.34218792394017
IRIDIUM 173             
1 43925U 19002D   26203.35003377 -.00000032  00000+0 -18539-4 0  9992
2 43925  86.3995 338.8656 0002034  93.1716 266.9713 14.34217517393992
IRIDIUM 169             
1 43926U 19002E   26203.37787561  .00000166  00000+0  47760-4 0  9993
2 43926  86.4240  10.4771 0002101 104.6108 255.5323 14.38601349395285
IRIDIUM 172             
1 43927U 19002F   26203.34369128  .00000031  00000+0  39243-5 0  9995
2 43927  86.3998 338.8761 0002184  92.1203 268.0243 14.34217946394000
IRIDIUM 175             
1 43928U 19002G   26203.27964001  .00000221  00000+0  59311-4 0  9997
2 43928  86.4503 275.8528 0005558 101.6652 258.5173 14.43629829404046
IRIDIUM 171             
1 43929U 19002H   26203.32466427  .00000206  00000+0  66482-4 0  9993
2 43929  86.4009 339.1940 0002269  95.3139 264.8316 14.34218413393998
IRIDIUM 170             
1 43930U 19002J   26203.37254241  .00000616  00000+0  93740-4 0  9991
2 43930  86.6119 338.8308 0002192  89.5830 270.5639 14.72256515404437
IRIDIUM 167             
1 43931U 19002K   26203.31832029  .00000151  00000+0  46780-4 0  9998
2 43931  86.3990 338.9096 0002473 121.4205 238.7233 14.34393285393999
IRIDIUM 181             
1 56726U 23068S   26203.53377745  .00000230  00000+0  62285-4 0  9990
2 56726  86.4475  42.0077 0002341  83.7006 276.4462 14.43309837167531
IRIDIUM 177             
1 56727U 23068T   26203.34376443  .00000787  00000+0  10061-3 0  9995
2 56727  86.1987 312.1019 0002264  97.6919 262.4559 14.80033001171563
IRIDIUM 174             
1 56728U 23068U   26203.29210994  .00000556  00000+0  84278-4 0  9994
2 56728  86.6121 339.0143 0001898  93.2561 266.8873 14.72251876171180
IRIDIUM 178             
1 56729U 23068V   26203.40041278  .00000710  00000+0  90403-4 0  9994
2 56729  86.6543  10.6427 0002275  92.1624 267.9858 14.80021379171574
IRIDIUM 179             
1 56730U 23068W   26203.46267269  .00000244  00000+0  28767-4 0  9998
2 56730  86.6772  19.6999 0002410  94.0950 266.0547 14.80025235171588
